[Satellite]
VERSION=1.1
NAME=CYGNUS NG-12
NICKNAME=CYGNUS NG-12
TLE1=1 44701U 19071A   19316.56018176  .00005076  00000-0  96839-4 0  9995
TLE2=2 44701  51.6452 345.6284 0006144 271.7699 243.5183 15.50005035198276
STATUS=0
